[{"OBJECT_NAME":"YAOGAN-30 04C","OBJECT_ID":"2017-085C","EPOCH":"2026-03-09T23:40:14.590272","MEAN_MOTION":15.02217282,"ECCENTRICITY":0.00053586,"INCLINATION":34.9965,"RA_OF_ASC_NODE":34.9402,"ARG_OF_PERICENTER":340.2354,"MEAN_ANOMALY":19.8146,"EPHEMERIS_TYPE":0,"CLASSIFICATION_TYPE":"U","NORAD_CAT_ID":43083,"ELEMENT_SET_NO":999,"REV_AT_EPOCH":44782,"BSTAR":0.0003185703,"MEAN_MOTION_DOT":4.258e-5,"MEAN_MOTION_DDOT":0},{"OBJECT_NAME":"STARLINK-5845","OBJECT_ID":"2023-088C","EPOCH":"2026-03-09T19:07:01.247808","MEAN_MOTION":15.02534824,"ECCENTRICITY":0.0001343,"INCLINATION":43.0052,"RA_OF_ASC_NODE":107.0828,"ARG_OF_PERICENTER":268.4424,"MEAN_ANOMALY":91.6264,"EPHEMERIS_TYPE":0,"CLASSIFICATION_TYPE":"U","NORAD_CAT_ID":57050,"ELEMENT_SET_NO":999,"REV_AT_EPOCH":15038,"BSTAR":1.9932039e-5,"MEAN_MOTION_DOT":6.6e-7,"MEAN_MOTION_DDOT":0}]
